H1 CPF 01  gfz 2022 05 16 00  6361 terrasarx 
H2 0702601  6201 31698    2022 05 16 00 59 42 2022 05 21 00 00 42   120 1 1  0 0 0
H9
10 0 59719  22302.000000  0    1530515.210    803339.880   6657561.625
10 0 59719  22422.000000  0    2410378.439    710016.946   6403497.653
10 0 59719  22542.000000  0    3246305.018    589287.046   6036887.581
10 0 59719  22662.000000  0    4023235.126    444154.744   5564140.730
10 0 59719  22782.000000  0    4727184.825    278306.301   4993532.002
10 0 59719  22902.000000  0    5345503.396     96024.567   4335063.355
10 0 59719  23022.000000  0    5867109.571    -97911.038   3600293.886
10 0 59719  23142.000000  0    6282700.785   -298336.876   2802139.387
10 0 59719  23262.000000  0    6584929.507   -499828.472   1954644.014
10 0 59719  23382.000000  0    6768540.828   -696832.882   1072729.895
10 0 59719  23502.000000  0    6830471.258   -883805.016    171929.267
10 0 59719  23622.000000  0    6769904.318  -1055345.091   -731897.774
10 0 59719  23742.000000  0    6588278.564  -1206334.228  -1622852.105
10 0 59719  23862.000000  0    6289250.793  -1332063.811  -2485283.537
10 0 59719  23982.000000  0    5878614.450  -1428355.780  -3304072.112
10 0 59719  24102.000000  0    5364177.007  -1491670.800  -4064896.314
10 0 59719  24222.000000  0    4755599.758  -1519201.241  -4754483.126
10 0 59719  24342.000000  0    4064205.177  -1508947.572  -5360835.629
10 0 59719  24462.000000  0    3302755.818  -1459777.349  -5873434.685
10 0 59719  24582.000000  0    2485210.926  -1371464.766  -6283410.846
10 0 59719  24702.000000  0    1626467.338  -1244709.831  -6583686.847
10 0 59719  24822.000000  0     742087.454  -1081138.006  -6769089.177
10 0 59719  24942.000000  0    -151979.712   -883281.159  -6836427.772
10 0 59719  25062.000000  0   -1039680.563   -654538.763  -6784544.493
10 0 59719  25182.000000  0   -1905138.375   -399120.780  -6614331.262
10 0 59719  25302.000000  0   -2732931.192   -121972.008  -6328715.553
10 0 59719  25422.000000  0   -3508360.104    171319.877  -5932614.855
10 0 59719  25542.000000  0   -4217707.300    474632.372  -5432862.214
10 0 59719  25662.000000  0   -4848480.104    781430.229  -4838098.859
10 0 59719  25782.000000  0   -5389635.766   1084899.676  -4158637.387
10 0 59719  25902.000000  0   -5831784.272   1378094.181  -3406293.531
10 0 59719  26022.000000  0   -6167362.059   1654086.976  -2594188.329
10 0 59719  26142.000000  0   -6390773.620   1906127.107  -1736523.946
10 0 59719  26262.000000  0   -6498497.326   2127796.174   -848336.299
10 0 59719  26382.000000  0   -6489151.288   2313161.332     54772.386
10 0 59719  26502.000000  0   -6363516.004   2456920.109    956914.647
10 0 59719  26622.000000  0   -6124513.220   2554534.211   1842205.362
10 0 59719  26742.000000  0   -5777141.531   2602348.566   2695050.793
10 0 59719  26862.000000  0   -5328369.983   2597691.620   3500431.508
10 0 59719  26982.000000  0   -4786992.866   2538954.304   4244174.066
10 0 59719  27102.000000  0   -4163448.935   2425646.191   4913203.631
10 0 59719  27222.000000  0   -3469612.165   2258428.165   5495773.729
10 0 59719  27342.000000  0   -2718558.197   2039121.273   5981670.827
10 0 59719  27462.000000  0   -1924310.132   1770691.030   6362389.680
10 0 59719  27582.000000  0   -1101570.761   1457207.321   6631276.198
10 0 59719  27702.000000  0    -265447.306   1103781.487   6783636.225
10 0 59719  27822.000000  0     568825.668    716481.954   6816811.703
10 0 59719  27942.000000  0    1386162.836    302229.774   6730223.978
10 0 59719  28062.000000  0    2171899.469   -131324.332   6525383.271
10 0 59719  28182.000000  0    2912053.709   -575940.492   6205865.071
10 0 59719  28302.000000  0    3593576.701  -1022945.126   5777252.340
10 0 59719  28422.000000  0    4204586.169  -1463398.848   5247043.418
10 0 59719  28542.000000  0    4734577.988  -1888274.648   4624526.447
10 0 59719  28662.000000  0    5174613.595  -2288642.002   3920622.941
10 0 59719  28782.000000  0    5517480.074  -2655854.353   3147699.970
10 0 59719  28902.000000  0    5757816.260  -2981735.290   2319352.510
10 0 59719  29022.000000  0    5892202.111  -3258758.586   1450162.518
10 0 59719  29142.000000  0    5919211.340  -3480218.921    555437.906
10 0 59719  29262.000000  0    5839422.711  -3640387.260   -349064.908
10 0 59719  29382.000000  0    5655391.801  -3734647.792  -1247426.955
10 0 59719  29502.000000  0    5371581.270  -3759611.631  -2123856.728
10 0 59719  29622.000000  0    4994253.403  -3713205.142  -2962974.624
10 0 59719  29742.000000  0    4531328.227  -3594731.870  -3750087.711
10 0 59719  29862.000000  0    3992210.516  -3404905.757  -4471448.450
10 0 59719  29982.000000  0    3387591.037  -3145855.613  -5114492.629
10 0 59719  30102.000000  0    2729227.325  -2821100.614  -5668051.589
10 0 59719  30222.000000  0    2029710.716  -2435500.082  -6122535.960
10 0 59719  30342.000000  0    1302224.226  -1995178.612  -6470092.060
10 0 59719  30462.000000  0     560293.591  -1507425.344  -6704727.954
10 0 59719  30582.000000  0    -182461.894   -980571.739  -6822405.816
10 0 59719  30702.000000  0    -912574.374   -423850.538  -6821103.001
10 0 59719  30822.000000  0   -1616965.681    152762.589  -6700842.802
10 0 59719  30942.000000  0   -2283176.396    738723.482  -6463693.376
10 0 59719  31062.000000  0   -2899581.067   1323107.125  -6113735.857
10 0 59719  31182.000000  0   -3455587.800   1894806.259  -5657002.145
10 0 59719  31302.000000  0   -3941821.106   2442738.610  -5101382.601
10 0 59719  31422.000000  0   -4350284.546   2956060.212  -4456501.070
10 0 59719  31542.000000  0   -4674497.998   3424379.732  -3733557.911
10 0 59719  31662.000000  0   -4909607.329   3837970.055  -2945145.235
10 0 59719  31782.000000  0   -5052464.790   4187973.096  -2105033.820
10 0 59719  31902.000000  0   -5101676.560   4466591.744  -1227935.375
10 0 59719  32022.000000  0   -5057616.870   4667265.246   -329243.781
10 0 59719  32142.000000  0   -4922406.159   4784822.788    575240.279
10 0 59719  32262.000000  0   -4699853.432   4815610.360   1469595.467
10 0 59719  32382.000000  0   -4395363.962   4757586.338   2338069.875
10 0 59719  32502.000000  0   -4015813.595   4610384.737   3165367.454
10 0 59719  32622.000000  0   -3569394.454   4375344.254   3936924.317
10 0 59719  32742.000000  0   -3065436.795   4055502.562   4639169.637
10 0 59719  32862.000000  0   -2514211.065   3655556.593   5259766.856
10 0 59719  32982.000000  0   -1926714.228   3181789.131   5787829.751
10 0 59719  33102.000000  0   -1314446.283   2641964.401   6214109.672
10 0 59719  33222.000000  0    -689181.934   2045194.799   6531151.212
10 0 59719  33342.000000  0     -62744.132   1401783.240   6733415.178
10 0 59719  33462.000000  0     553219.166    723043.001   6817370.555
10 0 59719  33582.000000  0    1147451.024     21098.210   6781551.434
10 0 59719  33702.000000  0    1709289.994   -691331.707   6626581.429
10 0 59719  33822.000000  0    2228860.844  -1401162.061   6355164.041
10 0 59719  33942.000000  0    2697248.461  -2095182.231   5972039.097
10 0 59719  34062.000000  0    3106653.258  -2760302.216   5483905.557
10 0 59719  34182.000000  0    3450523.886  -3383801.129   4899309.950
10 0 59719  34302.000000  0    3723665.600  -3953573.831   4228502.776
10 0 59719  34422.000000  0    3922322.682  -4458370.818   3483263.077
10 0 59719  34542.000000  0    4044231.503  -4888026.125   2676693.373
10 0 59719  34662.000000  0    4088643.853  -5233667.907   1822988.461
10 0 59719  34782.000000  0    4056319.288  -5487906.034    937181.516
10 0 59719  34902.000000  0    3949485.921  -5644991.439     34872.749
10 0 59719  35022.000000  0    3771772.019  -5700943.910   -868052.258
10 0 59719  35142.000000  0    3528108.681  -5653645.724  -1755711.946
10 0 59719  35262.000000  0    3224605.648  -5502895.919  -2612516.187
10 0 59719  35382.000000  0    2868405.632  -5250426.748  -3423446.453
10 0 59719  35502.000000  0    2467518.853  -4899880.564  -4174323.008
10 0 59719  35622.000000  0    2030643.079  -4456748.943  -4852052.167
10 0 59719  35742.000000  0    1566975.047  -3928276.394  -5444849.539
10 0 59719  35862.000000  0    1086018.267  -3323332.350  -5942436.417
10 0 59719  35982.000000  0     597389.746  -2652255.293  -6336207.694
10 0 59719  36102.000000  0     110629.737  -1926671.445  -6619369.735
10 0 59719  36222.000000  0    -364980.933  -1159291.212  -6787046.726
10 0 59719  36342.000000  0    -820592.822   -363687.688  -6836355.784
10 0 59719  36462.000000  0   -1247947.991    445939.389  -6766450.520
10 0 59719  36582.000000  0   -1639526.275   1255010.520  -6578533.262
10 0 59719  36702.000000  0   -1988674.420   2048822.505  -6275836.491
10 0 59719  36822.000000  0   -2289717.366   2812809.016  -5863573.956
10 0 59719  36942.000000  0   -2538050.910   3532804.626  -5348860.861
10 0 59719  37062.000000  0   -2730213.171   4195306.772  -4740602.568
10 0 59719  37182.000000  0   -2863934.720   4787732.295  -4049351.635
10 0 59719  37302.000000  0   -2938164.510   5298661.782  -3287133.197
10 0 59719  37422.000000  0   -2953070.868   5718065.852  -2467243.458
10 0 59719  37542.000000  0   -2910018.881   6037511.985  -1604023.441
10 0 59719  37662.000000  0   -2811522.083   6250343.910   -712607.545
10 0 59719  37782.000000  0   -2661170.286   6351826.597    191344.185
10 0 59719  37902.000000  0   -2463536.736   6339258.585   1091926.689
10 0 59719  38022.000000  0   -2224062.212   6212041.977   1973281.622
10 0 59719  38142.000000  0   -1948920.391   5971706.690   2819886.488
10 0 59719  38262.000000  0   -1644870.041   5621892.416   3616835.275
10 0 59719  38382.000000  0   -1319097.708   5168289.202   4350106.102
10 0 59719  38502.000000  0    -979054.429   4618537.570   5006811.617
10 0 59719  38622.000000  0    -632288.520   3982089.989   5575425.703
10 0 59719  38742.000000  0    -286281.706   3270039.922   6045982.276
99
